FENGYUN 1C DEB          
1 30975U 99025BBR 17341.50216336  .00000806  00000-0  32163-3 0  9993
2 30975  98.9787  77.9155 0219199  70.4100 292.0596 14.19030205553912
